[{"OBJECT_NAME":"STARLINK-32148","OBJECT_ID":"2024-131J","EPOCH":"2026-03-09T06:25:32.989152","MEAN_MOTION":15.30189069,"ECCENTRICITY":0.00012409,"INCLINATION":53.1611,"RA_OF_ASC_NODE":54.4138,"ARG_OF_PERICENTER":91.6952,"MEAN_ANOMALY":268.4191,"EPHEMERIS_TYPE":0,"CLASSIFICATION_TYPE":"U","NORAD_CAT_ID":60263,"ELEMENT_SET_NO":999,"REV_AT_EPOCH":9170,"BSTAR":2.7625241e-5,"MEAN_MOTION_DOT":4.59e-6,"MEAN_MOTION_DDOT":0},{"OBJECT_NAME":"KUIPER-00276","OBJECT_ID":"2026-030AG","EPOCH":"2026-03-09T22:00:01.999584","MEAN_MOTION":15.30162454,"ECCENTRICITY":0.00186471,"INCLINATION":51.8824,"RA_OF_ASC_NODE":218.7283,"ARG_OF_PERICENTER":66.9346,"MEAN_ANOMALY":101.1527,"EPHEMERIS_TYPE":0,"CLASSIFICATION_TYPE":"U","NORAD_CAT_ID":67794,"ELEMENT_SET_NO":999,"REV_AT_EPOCH":482,"BSTAR":0.0021152378,"MEAN_MOTION_DOT":0.00063116,"MEAN_MOTION_DDOT":0}]
